{
  "type": "FeatureCollection",
  "features": [
    {
      "type": "Feature",
      "geometry": {
        "type": "Polygon",
        "coordinates": [
          [
            [
              136.15003126042188,
              34.46904059386706
            ],
            [
              136.15381673957808,
              34.46904059386706
            ],
            [
              136.15381673957808,
              34.47216140613295
            ],
            [
              136.15003126042188,
              34.47216140613295
            ],
            [
              136.15003126042188,
              34.46904059386706
            ]
          ]
        ]
      },
      "properties": {
        "stand_id": "S1",
        "species": "sugi",
        "area_ha": 12.0,
        "age": 58,
        "volume_m3": 7065,
        "status": "ready to harvest",
        "recommendation": "harvest within 14 yr",
        "biodiversity": 0.4,
        "water": 0.3,
        "color": "#e23b3b"
      }
    },
    {
      "type": "Feature",
      "geometry": {
        "type": "Polygon",
        "coordinates": [
          [
            [
              136.16419617306263,
              34.46917655060353
            ],
            [
              136.16765182693734,
              34.46917655060353
            ],
            [
              136.16765182693734,
              34.472025449396476
            ],
            [
              136.16419617306263,
              34.472025449396476
            ],
            [
              136.16419617306263,
              34.46917655060353
            ]
          ]
        ]
      },
      "properties": {
        "stand_id": "S2",
        "species": "sugi",
        "area_ha": 10.0,
        "age": 52,
        "volume_m3": 5786,
        "status": "ready to harvest",
        "recommendation": "harvest within 8 yr",
        "biodiversity": 0.38,
        "water": 0.3,
        "color": "#e23b3b"
      }
    },
    {
      "type": "Feature",
      "geometry": {
        "type": "Polygon",
        "coordinates": [
          [
            [
              136.1783785846059,
              34.469326933727594
            ],
            [
              136.1814694153941,
              34.469326933727594
            ],
            [
              136.1814694153941,
              34.47187506627241
            ],
            [
              136.1783785846059,
              34.47187506627241
            ],
            [
              136.1783785846059,
              34.469326933727594
            ]
          ]
        ]
      },
      "properties": {
        "stand_id": "S3",
        "species": "sugi",
        "area_ha": 8.0,
        "age": 47,
        "volume_m3": 4511,
        "status": "ready to harvest",
        "recommendation": "harvest within 3 yr",
        "biodiversity": 0.37,
        "water": 0.3,
        "color": "#e23b3b"
      }
    },
    {
      "type": "Feature",
      "geometry": {
        "type": "Polygon",
        "coordinates": [
          [
            [
              136.15028460368504,
              34.48124964864865
            ],
            [
              136.15356339631492,
              34.48124964864865
            ],
            [
              136.15356339631492,
              34.483952351351356
            ],
            [
              136.15028460368504,
              34.483952351351356
            ],
            [
              136.15028460368504,
              34.48124964864865
            ]
          ]
        ]
      },
      "properties": {
        "stand_id": "S4",
        "species": "sugi",
        "area_ha": 9.0,
        "age": 40,
        "volume_m3": 4744,
        "status": "ready to thin",
        "recommendation": "thin this rotation",
        "biodiversity": 0.35,
        "water": 0.3,
        "color": "#f2c037"
      }
    },
    {
      "type": "Feature",
      "geometry": {
        "type": "Polygon",
        "coordinates": [
          [
            [
              136.1641115791802,
              34.48110702486921
            ],
            [
              136.16773642081978,
              34.48110702486921
            ],
            [
              136.16773642081978,
              34.484094975130795
            ],
            [
              136.1641115791802,
              34.484094975130795
            ],
            [
              136.1641115791802,
              34.48110702486921
            ]
          ]
        ]
      },
      "properties": {
        "stand_id": "S5",
        "species": "sugi",
        "area_ha": 11.0,
        "age": 33,
        "volume_m3": 5083,
        "status": "ready to thin",
        "recommendation": "thin this rotation",
        "biodiversity": 0.33,
        "water": 0.3,
        "color": "#f2c037"
      }
    }
  ]
}