{
  "type": "FeatureCollection",
  "features": [
    {
      "type": "Feature",
      "geometry": {
        "type": "Polygon",
        "coordinates": [
          [
            [
              136.16957351735633,
              34.482601
            ],
            [
              136.1695108587878,
              34.48306928594065
            ],
            [
              136.16943545648408,
              34.48354147586523
            ],
            [
              136.1692667942761,
              34.48400497655755
            ],
            [
              136.16890161666842,
              34.48438425788649
            ],
            [
              136.1683214369428,
              34.48457720283936
            ],
            [
              136.1676341631857,
              34.48454126405577
            ],
            [
              136.1670095516802,
              34.484357179684096
            ],
            [
              136.16655692695568,
              34.48420669065346
            ],
            [
              136.16624386836224,
              34.48426572728669
            ],
            [
              136.165924,
              34.48458452112738
            ],
            [
              136.16545472758816,
              34.485043287769244
            ],
            [
              136.164812811376,
              34.48542000647733
            ],
            [
              136.16411681829234,
              34.48552461557568
            ],
            [
              136.16354008081578,
              34.48530567329882
            ],
            [
              136.16318512945912,
              34.48485864592297
            ],
            [
              136.16301970991228,
              34.484340343501955
            ],
            [
              136.1629223307336,
              34.483861703751245
            ],
            [
              136.1627952689725,
              34.48343897023643
            ],
            [
              136.16264914288237,
              34.48302855225019
            ],
            [
              136.16258922208732,
              34.482601
            ],
            [
              136.16271715094965,
              34.48218232661114
            ],
            [
              136.1630330129795,
              34.48182670490855
            ],
            [
              136.16342247047575,
              34.48155035538357
            ],
            [
              136.16374233109815,
              34.481294425410944
            ],
            [
              136.16393474931715,
              34.48096126434005
            ],
            [
              136.1640747243083,
              34.480502905979634
            ],
            [
              136.16430939041612,
              34.4799889230251
            ],
            [
              136.16473678520944,
              34.47958912054741
            ],
            [
              136.16532266216228,
              34.47947138911901
            ],
            [
              136.165924,
              34.47968510537231
            ],
            [
              136.16640110060925,
              34.480117971052834
            ],
            [
              136.16672751467752,
              34.48056254043365
            ],
            [
              136.16700819279913,
              34.480847018681374
            ],
            [
              136.1673905502351,
              34.48093712679133
            ],
            [
              136.16793994483723,
              34.48093926039793
            ],
            [
              136.16857956465878,
              34.481010615088785
            ],
            [
              136.1691419316529,
              34.481249465854816
            ],
            [
              136.169488743019,
              34.48164625236456
            ],
            [
              136.1696017477756,
              34.48212084795654
            ],
            [
              136.16957351735633,
              34.482601
            ]
          ]
        ]
      },
      "properties": {
        "name": "Sugano Organic \u2014 potential demonstration area",
        "area_ha": 28.0,
        "note": "approximate organic boundary; refine with Tokuo / LiDAR survey"
      }
    }
  ]
}